H1 CPF 01  gfz 2021 09 05 00  7481 terrasarx 
H2 0702601  6201 31698    2021 09 05 00 59 42 2021 09 10 00 00 42   120 1 1  0 0 0
H9
10 0 59462  36702.000000  0   -2291637.951   5425704.011   3564380.967
10 0 59462  36822.000000  0   -1918883.703   5018305.865   4302402.582
10 0 59462  36942.000000  0   -1520553.220   4516456.735   4964696.768
10 0 59462  37062.000000  0   -1105196.049   3928581.927   5539637.282
10 0 59462  37182.000000  0    -681492.538   3264756.103   6017145.563
10 0 59462  37302.000000  0    -258073.876   2536522.560   6388862.578
10 0 59462  37422.000000  0     156652.220   1756686.785   6648288.640
10 0 59462  37542.000000  0     554667.140    939087.812   6790891.804
10 0 59462  37662.000000  0     928495.305     98350.566   6814181.291
10 0 59462  37782.000000  0    1271343.376   -750374.547   6717748.372
10 0 59462  37902.000000  0    1577223.225  -1591684.264   6503274.072
10 0 59462  38022.000000  0    1841056.816  -2410201.300   6174501.994
10 0 59462  38142.000000  0    2058761.202  -3190856.299   5737177.705
10 0 59462  38262.000000  0    2227312.459  -3919167.860   5198953.567
10 0 59462  38382.000000  0    2344786.894  -4581514.662   4569260.065
10 0 59462  38502.000000  0    2410380.068  -5165395.883   3859146.499
10 0 59462  38622.000000  0    2424403.057  -5659675.534   3081090.240
10 0 59462  38742.000000  0    2388253.250  -6054803.860   2248777.948
10 0 59462  38862.000000  0    2304362.334  -6343009.496   1376861.933
10 0 59462  38982.000000  0    2176122.886  -6518457.728    480698.102
10 0 59462  39102.000000  0    2007794.286  -6577373.979   -423930.646
10 0 59462  39222.000000  0    1804390.752  -6518126.409  -1321102.563
10 0 59462  39342.000000  0    1571551.665  -6341262.375  -2195047.356
10 0 59462  39462.000000  0    1315400.477  -6049502.360  -3030430.533
10 0 59462  39582.000000  0    1042396.026  -5647687.534  -3812627.887
10 0 59462  39702.000000  0     759181.002  -5142687.750  -4527981.686
10 0 59462  39822.000000  0     472429.214  -4543271.689  -5164036.360
10 0 59462  39942.000000  0     188696.412  -3859943.129  -5709748.751
10 0 59462  40062.000000  0     -85722.205  -3104746.980  -6155670.819
10 0 59462  40182.000000  0    -344924.798  -2291050.124  -6494101.989
10 0 59462  40302.000000  0    -583523.724  -1433301.770  -6719210.596
10 0 59462  40422.000000  0    -796752.324   -546778.007  -6827124.400
10 0 59462  40542.000000  0    -980555.934    352686.804  -6815990.080
10 0 59462  40662.000000  0   -1131666.386   1248976.260  -6686000.277
10 0 59462  40782.000000  0   -1247658.774   2125973.208  -6439390.511
10 0 59462  40902.000000  0   -1326989.578   2967842.101  -6080405.154
10 0 59462  41022.000000  0   -1369016.302   3759310.922  -5615233.642
10 0 59462  41142.000000  0   -1373997.713   4485946.908  -5051913.809
10 0 59462  41262.000000  0   -1343074.897   5134422.469  -4400204.937
10 0 59462  41382.000000  0   -1278233.329   5692766.280  -3671428.728
10 0 59462  41502.000000  0   -1182245.814   6150592.817  -2878280.632
10 0 59462  41622.000000  0   -1058597.583   6499306.237  -2034615.104
10 0 59462  41742.000000  0    -911394.858   6732274.347  -1155205.727
10 0 59462  41862.000000  0    -745259.099   6844965.594   -255485.360
10 0 59462  41982.000000  0    -565208.598   6835047.810    648728.940
10 0 59462  42102.000000  0    -376530.774   6702443.513   1541522.643
10 0 59462  42222.000000  0    -184648.720   6449337.238   2407174.512
10 0 59462  42342.000000  0       5014.231   6080136.178   3230441.273
10 0 59462  42462.000000  0     187168.836   5601388.331   3996831.589
10 0 59462  42582.000000  0     356789.951   5021661.539   4692866.679
10 0 59462  42702.000000  0     509239.242   4351376.971   5306322.851
10 0 59462  42822.000000  0     640377.155   3602609.964   5826440.321
10 0 59462  42942.000000  0     746662.437   2788865.824   6244108.962
10 0 59462  43062.000000  0     825235.491   1924828.465   6552022.558
10 0 59462  43182.000000  0     873985.325   1026090.750   6744800.642
10 0 59462  43302.000000  0     891598.814    108870.431   6819076.379
10 0 59462  43422.000000  0     877591.373   -810281.386   6773551.593
10 0 59462  43542.000000  0     832318.316  -1714778.541   6609019.387
10 0 59462  43662.000000  0     756966.738  -2588298.859   6328351.517
10 0 59462  43782.000000  0     653528.094  -3415080.121   5936451.823
10 0 59462  43902.000000  0     524751.469  -4180206.310   5440173.112
10 0 59462  44022.000000  0     374080.103  -4869878.603   4848203.146
10 0 59462  44142.000000  0     205571.462  -5471670.204   4170920.220
10 0 59462  44262.000000  0      23801.044  -5974760.684   3420216.271
10 0 59462  44382.000000  0    -166247.882  -6370141.140   2609289.765
10 0 59462  44502.000000  0    -359305.460  -6650785.433   1752412.031
10 0 59462  44622.000000  0    -549944.763  -6811783.414    864673.390
10 0 59462  44742.000000  0    -732716.671  -6850435.374    -38289.705
10 0 59462  44862.000000  0    -902286.534  -6766299.306   -940580.243
10 0 59462  44982.000000  0   -1053568.074  -6561191.662  -1826329.694
10 0 59462  45102.000000  0   -1181851.799  -6239143.493  -2679984.360
10 0 59462  45222.000000  0   -1282925.220  -5806313.535  -3486584.394
10 0 59462  45342.000000  0   -1353181.569  -5270859.351  -4232029.417
10 0 59462  45462.000000  0   -1389714.017  -4642770.510  -4903323.960
10 0 59462  45582.000000  0   -1390393.682  -3933670.391  -5488798.402
10 0 59462  45702.000000  0   -1353929.983  -3156591.675  -5978303.632
10 0 59462  45822.000000  0   -1279912.155  -2325729.973  -6363377.115
10 0 59462  45942.000000  0   -1168831.522  -1456180.573  -6637377.713
10 0 59462  46062.000000  0   -1022084.734   -563664.736  -6795588.895
10 0 59462  46182.000000  0    -841958.037    335750.857  -6835291.163
10 0 59462  46302.000000  0    -631591.694   1225936.821  -6755802.727
10 0 59462  46422.000000  0    -394926.368   2090982.621  -6558489.739
10 0 59462  46542.000000  0    -136632.463   2915473.593  -6246745.904
10 0 59462  46662.000000  0     137978.369   3684761.597  -5825942.061
10 0 59462  46782.000000  0     423058.183   4385224.136  -5303342.475
10 0 59462  46902.000000  0     712341.170   5004506.886  -4687990.633
10 0 59462  47022.000000  0     999274.734   5531748.124  -3990564.359
10 0 59462  47142.000000  0    1277160.965   5957778.481  -3223199.784
10 0 59462  47262.000000  0    1539305.180   6275291.537  -2399287.470
10 0 59462  47382.000000  0    1779168.640   6478981.860  -1533242.524
10 0 59462  47502.000000  0    1990521.967   6565645.669   -640251.743
10 0 59462  47622.000000  0    2167595.036   6534239.928    263997.287
10 0 59462  47742.000000  0    2305218.988   6385898.202   1163598.395
10 0 59462  47862.000000  0    2398957.295   6123903.156   2042714.285
10 0 59462  47982.000000  0    2445222.204   5753616.052   2885863.434
10 0 59462  48102.000000  0    2441374.080   5282365.359   3678200.300
10 0 59462  48222.000000  0    2385800.568   4719296.778   4405783.454
10 0 59462  48342.000000  0    2277973.028   4075187.353   5055826.441
10 0 59462  48462.000000  0    2118478.314   3362227.336   5616921.378
10 0 59462  48582.000000  0    1909028.555   2593782.511   6079234.429
10 0 59462  48702.000000  0    1652447.514   1784138.052   6434674.232
10 0 59462  48822.000000  0    1352632.803    948227.502   6677028.089
10 0 59462  48942.000000  0    1014495.781    101354.701   6802063.210
10 0 59462  49062.000000  0     643880.789   -741085.031   6807596.039
10 0 59462  49182.000000  0     247463.943  -1563884.689   6693529.680
10 0 59462  49302.000000  0    -167367.330  -2352300.091   6461855.321
10 0 59462  49422.000000  0    -592651.815  -3092314.687   6116619.255
10 0 59462  49542.000000  0   -1020005.379  -3770889.626   5663854.321
10 0 59462  49662.000000  0   -1440783.116  -4376194.632   5111480.499
10 0 59462  49782.000000  0   -1846253.030  -4897819.712   4469175.250
10 0 59462  49902.000000  0   -2227777.313  -5326963.432   3748210.294
10 0 59462  50022.000000  0   -2576996.326  -5656591.047   2961255.664
10 0 59462  50142.000000  0   -2886010.318  -5881556.917   2122156.127
10 0 59462  50262.000000  0   -3147555.147  -5998690.690   1245685.014
10 0 59462  50382.000000  0   -3355167.936  -6006844.868    347278.717
10 0 59462  50502.000000  0   -3503338.254  -5906901.746   -557242.648
10 0 59462  50622.000000  0   -3587641.006  -5701739.471  -1451962.788
10 0 59462  50742.000000  0   -3604847.397  -5396157.140  -2321158.400
10 0 59462  50862.000000  0   -3553011.241  -4996761.326  -3149582.985
10 0 59462  50982.000000  0   -3431528.115  -4511817.309  -3922738.903
10 0 59462  51102.000000  0   -3241166.320  -3951070.247  -4627131.278
10 0 59462  51222.000000  0   -2984070.291  -3325541.806  -5250499.934
10 0 59462  51342.000000  0   -2663736.893  -2647306.664  -5782025.832
10 0 59462  51462.000000  0   -2284965.603  -1929254.775  -6212509.315
10 0 59462  51582.000000  0   -1853783.184  -1184844.102  -6534519.043
10 0 59462  51702.000000  0   -1377344.863   -427848.463  -6742508.458
10 0 59462  51822.000000  0    -863815.515    327893.865  -6832899.988
10 0 59462  51942.000000  0    -322231.858   1068726.772  -6804139.656
10 0 59462  52062.000000  0     237653.109   1781416.719  -6656720.631
10 0 59462  52182.000000  0     805540.056   2453382.800  -6393176.884
10 0 59462  52302.000000  0    1370769.174   3072915.545  -6018045.904
10 0 59462  52422.000000  0    1922515.974   3629379.707  -5537797.968
10 0 59462  52542.000000  0    2449995.075   4113397.518  -4960734.926
10 0 59462  52662.000000  0    2942669.151   4517010.842  -4296858.463
10 0 59462  52782.000000  0    3390459.109   4833819.270  -3557707.169
10 0 59462  52902.000000  0    3783951.454   5059089.801  -2756164.523
10 0 59462  53022.000000  0    4114598.904   5189835.346  -1906239.055
10 0 59462  53142.000000  0    4374907.386   5224859.189  -1022821.057
99
